NORAD_CAT_ID,OBJECT_NAME,OBJECT_TYPE,EPOCH,MEAN_MOTION,ECCENTRICITY,INCLINATION,RA_OF_ASC_NODE,ARG_OF_PERICENTER,MEAN_ANOMALY,BSTAR,MEAN_MOTION_DOT,MEAN_MOTION_DDOT,TLE_LINE0,TLE_LINE1,TLE_LINE2,SEMIMAJOR_AXIS,PERIOD,APOGEE,PERIGEE,DECAYED
55924.0,STARLINK-5849,PAYLOAD,2023-03-22 18:00:00,15.94993278,0.0039833,69.9998,167.7476,162.7021,298.5501,-0.0023164,-0.00975041,0.00029739,0 STARLINK-5849,1 55924U 23037L   23081.75001157 -.00975041  29739-3 -23164-2 0  9999,2 55924  69.9998 167.7476 0039833 162.7021 298.5501 15.94993278  1301,6666.47,90.283,314.89,261.781,0.0
55924.0,STARLINK-5849,PAYLOAD,2023-03-22 22:00:00,15.9469254,0.0038714,70.0,167.2616,163.263,174.5864,-0.0024989,-0.01029459,0.00032774,0 STARLINK-5849,1 55924U 23037L   23081.91667824 -.01029459  32774-3 -24989-2 0  9999,2 55924  70.0000 167.2616 0038714 163.2630 174.5864 15.94692540  1301,6667.308,90.3,314.985,263.361,0.0
55924.0,STARLINK-5849,PAYLOAD,2023-03-23 01:06:19,15.94610188,0.0040159,69.9978,166.8842,160.9938,199.278,-0.0010678,-0.00442581,6.8978e-05,0 STARLINK-5849,1 55924U 23037L   23082.04605407 -.00442581  68978-4 -10678-2 0  9993,2 55924  69.9978 166.8842 0040159 160.9938 199.2780 15.94610188  1342,6667.538,90.304,316.179,262.627,0.0
55924.0,STARLINK-5849,PAYLOAD,2023-03-24 17:00:11,15.9115797,0.0018566,69.9999,162.0498,174.0168,355.6632,-0.0030071,-0.00970925,0.00028376,0 STARLINK-5849,1 55924U 23037L   23083.70846065 -.00970925  28376-3 -30071-2 0  9998,2 55924  69.9999 162.0498 0018566 174.0168 355.6632 15.91157970  1603,6677.178,90.5,311.44,286.646,0.0
55924.0,STARLINK-5849,PAYLOAD,2023-03-24 22:00:01,15.90791668,0.0015955,69.9997,161.4457,177.8528,104.0694,-0.0033351,-0.01051755,0.00032779,0 STARLINK-5849,1 55924U 23037L   23083.91668981 -.01051755  32779-3 -33351-2 0  9998,2 55924  69.9997 161.4457 0015955 177.8528 104.0694 15.90791668  1307,6678.203,90.521,310.723,289.413,0.0
55924.0,STARLINK-5849,PAYLOAD,2023-03-25 06:00:00,15.90123118,0.001264,70.0001,160.4798,186.2791,203.5136,-0.0033626,-0.01020764,0.00030812,0 STARLINK-5849,1 55924U 23037L   23084.25001157 -.01020764  30812-3 -33626-2 0  9999,2 55924  70.0001 160.4798 0012640 186.2791 203.5136 15.90123118  1694,6680.075,90.559,310.384,293.496,0.0
55924.0,STARLINK-5849,PAYLOAD,2023-03-25 14:00:01,15.89449174,0.0010892,70.0002,159.5152,195.1942,301.7549,-0.0033376,-0.0097781,0.0002827,0 STARLINK-5849,1 55924U 23037L   23084.58334491 -.00977810  28270-3 -33376-2 0  9994,2 55924  70.0002 159.5152 0010892 195.1942 301.7549 15.89449174  1748,6681.963,90.597,311.106,296.55,0.0
55924.0,STARLINK-5849,PAYLOAD,2023-03-25 22:00:00,15.88820922,0.0008858,69.9999,158.5502,214.026,29.2805,-0.0036194,-0.01025371,0.00030679,0 STARLINK-5849,1 55924U 23037L   23084.91667824 -.01025371  30679-3 -36194-2 0  9994,2 55924  69.9999 158.5502 0008858 214.0260  29.2805 15.88820922  1796,6683.725,90.633,311.51,299.669,0.0
55924.0,STARLINK-5849,PAYLOAD,2023-03-26 06:00:00,15.881756,0.0008315,69.9997,157.5877,236.9992,111.8884,-0.0037919,-0.01039825,0.0003129,0 STARLINK-5849,1 55924U 23037L   23085.25001157 -.01039825  31290-3 -37919-2 0  9998,2 55924  69.9997 157.5877 0008315 236.9992 111.8884 15.88175600  1859,6685.535,90.67,312.959,301.841,0.0
55924.0,STARLINK-5849,PAYLOAD,2023-03-26 22:00:01,15.86846985,0.0009154,69.9998,155.6639,266.2978,291.4865,-0.0038697,-0.00904436,0.0,0 STARLINK-5849,1 55924U 23037L   23085.91668981 -.00904436  00000-0 -38697-2 0  9999,2 55924  69.9998 155.6639 0009154 266.2978 291.4865 15.86846985  1951,6689.266,90.746,317.254,305.008,0.0
55924.0,STARLINK-5849,PAYLOAD,2023-03-27 14:00:01,15.85555066,0.0007277,69.9999,153.7439,271.6419,131.7627,-0.0042216,-0.00922469,0.0,0 STARLINK-5849,1 55924U 23037L   23086.58334491 -.00922469  00000-0 -42216-2 0  9997,2 55924  69.9999 153.7439 0007277 271.6419 131.7627 15.85555066  1300,6692.899,90.82,319.635,309.894,0.0
55924.0,STARLINK-5849,PAYLOAD,2023-03-27 22:00:00,15.84913877,0.0003935,70.0002,152.7851,274.6436,230.4279,-0.004435,-0.00935465,0.0,0 STARLINK-5849,1 55924U 23037L   23086.91667824 -.00935465  00000-0 -44350-2 0  9994,2 55924  70.0002 152.7851 0003935 274.6436 230.4279 15.84913877  2111,6694.704,90.857,319.204,313.935,0.0
55924.0,STARLINK-5849,PAYLOAD,2023-03-28 14:00:01,15.83589992,0.0003636,70.0,150.871,269.4683,76.6097,-0.0045709,-0.00907575,0.0,0 STARLINK-5849,1 55924U 23037L   23087.58334491 -.00907575  00000-0 -45709-2 0  9999,2 55924  70.0000 150.8710 0003636 269.4683  76.6097 15.83589992  1300,6698.435,90.933,322.735,317.864,0.0
55924.0,STARLINK-5849,PAYLOAD,2023-03-28 22:00:00,15.82947113,0.0003698,69.9998,149.9145,280.3755,165.0244,-0.0047892,-0.00920956,0.0,0 STARLINK-5849,1 55924U 23037L   23087.91667824 -.00920956  00000-0 -47892-2 0  9998,2 55924  69.9998 149.9145 0003698 280.3755 165.0244 15.82947113  1303,6700.248,90.97,324.591,319.636,0.0
55924.0,STARLINK-5849,PAYLOAD,2023-03-29 02:00:01,15.82610335,0.0003699,70.0002,149.4372,277.0227,37.7512,-0.0047784,-0.00905962,0.0,0 STARLINK-5849,1 55924U 23037L   23088.08334491 -.00905962  00000-0 -47784-2 0  9998,2 55924  70.0002 149.4372 0003699 277.0227  37.7512 15.82610335  2304,6701.199,90.989,325.543,320.585,0.0
55924.0,STARLINK-5849,PAYLOAD,2023-03-29 14:00:01,15.81631773,0.0003566,70.0001,148.006,269.2763,12.432,-0.0049953,-0.00904669,0.0,0 STARLINK-5849,1 55924U 23037L   23088.58334491 -.00904669  00000-0 -49953-2 0  9996,2 55924  70.0001 148.0060 0003566 269.2763  12.4320 15.81631773  1307,6703.963,91.045,328.218,323.437,0.0
55924.0,STARLINK-5849,PAYLOAD,2023-03-29 22:00:00,15.80978756,0.0003653,69.9999,147.0529,268.5013,110.1866,-0.0051466,-0.00904279,0.0,0 STARLINK-5849,1 55924U 23037L   23088.91667824 -.00904279  00000-0 -51466-2 0  9991,2 55924  69.9999 147.0529 0003653 268.5013 110.1866 15.80978756  1301,6705.809,91.083,330.123,325.224,0.0
55924.0,STARLINK-5849,PAYLOAD,2023-03-30 00:00:00,15.80814829,0.0003519,70.0,146.8148,268.5939,224.2162,-0.0051688,-0.00901527,0.0,0 STARLINK-5849,1 55924U 23037L   23089.00001157 -.00901527  00000-0 -51688-2 0  9992,2 55924  70.0000 146.8148 0003519 268.5939 224.2162 15.80814829  2441,6706.272,91.092,330.497,325.777,0.0
55924.0,STARLINK-5849,PAYLOAD,2023-03-30 22:00:00,15.79025252,0.0003599,70.0001,144.1988,272.4467,32.4822,-0.0056595,-0.00908609,0.0,0 STARLINK-5849,1 55924U 23037L   23089.91667824 -.00908609  00000-0 -56595-2 0  9991,2 55924  70.0001 144.1988 0003599 272.4467  32.4822 15.79025252  2593,6711.338,91.196,335.619,330.788,0.0
55924.0,STARLINK-5849,PAYLOAD,2023-03-31 22:00:00,15.77079734,0.0003656,70.0004,141.3533,284.3046,299.8209,-0.0062909,-0.00923619,0.0,0 STARLINK-5849,1 55924U 23037L   23090.91667824 -.00923619  00000-0 -62909-2 0  9997,2 55924  70.0004 141.3533 0003656 284.3046 299.8209 15.77079734  2747,6716.857,91.308,341.177,336.266,0.0
55924.0,STARLINK-5849,PAYLOAD,2023-04-01 14:00:01,15.75761063,0.0003656,70.0,139.461,276.947,129.4074,-0.0064954,-0.00901832,0.0,0 STARLINK-5849,1 55924U 23037L   23091.58334491 -.00901832  00000-0 -64954-2 0  9997,2 55924  70.0000 139.4610 0003656 276.9470 129.4074 15.75761063  1305,6720.603,91.384,344.925,340.011,0.0
55924.0,STARLINK-5849,PAYLOAD,2023-04-01 22:00:00,15.75108657,0.000363,70.0002,138.516,284.1278,212.1649,-0.0066841,-0.00901805,0.0,0 STARLINK-5849,1 55924U 23037L   23091.91667824 -.00901805  00000-0 -66841-2 0  9990,2 55924  70.0002 138.5160 0003630 284.1278 212.1649 15.75108657  1308,6722.459,91.422,346.764,341.884,0.0
55924.0,STARLINK-5849,PAYLOAD,2023-04-02 08:00:01,15.74295752,0.0003715,70.0002,137.3362,281.3053,56.3093,-0.0069627,-0.00906226,0.0,0 STARLINK-5849,1 55924U 23037L   23092.33334491 -.00906226  00000-0 -69627-2 0  9995,2 55924  70.0002 137.3362 0003715 281.3053  56.3093 15.74295752  2970,6724.773,91.469,349.136,344.14,0.0
55924.0,STARLINK-5849,PAYLOAD,2023-04-02 14:00:01,15.73804573,0.0003657,70.0001,136.6294,277.7132,36.1085,-0.0070728,-0.0090163,0.0,0 STARLINK-5849,1 55924U 23037L   23092.58334491 -.00901630  00000-0 -70728-2 0  9990,2 55924  70.0001 136.6294 0003657 277.7132  36.1085 15.73804573  1306,6726.172,91.498,350.497,345.577,0.0
55924.0,STARLINK-5849,PAYLOAD,2023-04-02 22:00:00,15.73147195,0.0003829,70.0003,135.6871,286.1868,115.2287,-0.0072148,-0.00894842,0.0,0 STARLINK-5849,1 55924U 23037L   23092.91667824 -.00894842  00000-0 -72148-2 0  9990,2 55924  70.0003 135.6871 0003829 286.1868 115.2287 15.73147195  1302,6728.046,91.536,352.487,347.335,0.0
55924.0,STARLINK-5849,PAYLOAD,2023-04-03 06:00:00,15.72500187,0.0003546,70.0001,134.7457,281.8196,206.4029,-0.0074926,-0.00902857,0.0,0 STARLINK-5849,1 55924U 23037L   23093.25001157 -.00902857  00000-0 -74926-2 0  9991,2 55924  70.0001 134.7457 0003546 281.8196 206.4029 15.72500187  3113,6729.891,91.574,354.143,349.37,0.0
55924.0,STARLINK-5849,PAYLOAD,2023-04-03 14:00:01,15.71846822,0.0003435,69.9999,133.8057,276.8219,297.4275,-0.0076786,-0.0090011,0.0,0 STARLINK-5849,1 55924U 23037L   23093.58334491 -.00900110  00000-0 -76786-2 0  9993,2 55924  69.9999 133.8057 0003435 276.8219 297.4275 15.71846822  1309,6731.756,91.612,355.933,351.309,0.0
55924.0,STARLINK-5849,PAYLOAD,2023-04-03 22:00:00,15.71151219,0.0003292,69.9951,132.8603,266.0302,33.4733,-0.0072042,-0.00827216,0.0,0 STARLINK-5849,1 55924U 23037L   23093.91667824 -.00827216  00000-0 -72042-2 0  9995,2 55924  69.9951 132.8603 0003292 266.0302  33.4733 15.71151219  3227,6733.743,91.653,357.824,353.391,0.0
55924.0,STARLINK-5849,PAYLOAD,2023-04-04 08:00:01,15.70213918,0.0003672,69.9958,131.687,271.4423,223.6071,-0.0037557,-0.00434489,0.0,0 STARLINK-5849,1 55924U 23037L   23094.33335648 -.00434489  00000-0 -37557-2 0  9996,2 55924  69.9958 131.6870 0003672 271.4423 223.6071 15.70213918  3281,6736.422,91.707,360.761,355.814,0.0
